ONEWEB-0283             
1 49001U 21060AL  25306.46241889  .00000035  00000+0  58669-4 0  9996
2 49001  87.8995 273.9407 0001975  88.9657 271.1700 13.16593062209789
ONEWEB-0284             
1 49002U 21060AM  25306.45609289  .00000056  00000+0  11208-3 0  9998
2 49002  87.9004 273.9284 0002261  78.2735 281.8650 13.16594138209768
ONEWEB-0285             
1 49075U 21075A   25306.48344684  .00000222  00000+0  58250-3 0  9995
2 49075  87.8972  35.6945 0001824 101.6605 258.4729 13.12443565205473
ONEWEB-0286             
1 49076U 21075B   25306.31287699  .00000383  00000+0  10300-2 0  9991
2 49076  87.8967  35.7634 0001619  98.8376 261.2936 13.12443801204809
ONEWEB-0287             
1 49077U 21075C   25306.34532507  .00000150  00000+0  35300-3 0  9996
2 49077  87.9137  50.9713 0001549  86.2648 273.8660 13.17643178203752
ONEWEB-0288             
1 49078U 21075D   25306.51736135 -.00000301  00000+0 -87262-3 0  9993
2 49078  87.8974  35.6828 0001878  96.3723 263.7620 13.12441789205451
ONEWEB-0289             
1 49079U 21075E   25306.30806387  .00000185  00000+0  44289-3 0  9998
2 49079  87.9126  50.9986 0002142  95.1472 264.9904 13.17650442204326
ONEWEB-0290             
1 49080U 21075F   25306.35713620  .00000178  00000+0  42623-3 0  9994
2 49080  87.9130  50.9472 0002430 100.3984 259.7421 13.17648890203745
